HAWK-5A                 
1 52757U 22057AB  26166.94723545  .00015733  00000+0  26904-3 0  9994
2 52757  97.6601 325.7143 0005661  82.7122 277.4773 15.51354575226156
HAWK-6B                 
1 55324U 23011A   26166.93713987  .00004419  00000+0  19252-3 0  9993
2 55324  40.4997 359.3629 0002525 351.4672   8.6094 15.22924458187659
HAWK-6C                 
1 55326U 23011C   26166.93647452  .00003833  00000+0  16810-3 0  9994
2 55326  40.4991 356.2052 0003492 342.6269  17.4420 15.22920976187662
HAWK-6A                 
1 55327U 23011D   26166.93652945  .00004263  00000+0  18602-3 0  9997
2 55327  40.4997 357.8300 0003191 339.9740  20.0944 15.22922068187666
HAWK-7A                 
1 56191U 23054P   26167.19316311  .00004536  00000+0  17201-3 0  9994
2 56191  97.2704  54.5559 0004401  59.6781 300.4894 15.27352306176872
HAWK-7B                 
1 56193U 23054R   26167.25859278  .00004538  00000+0  17212-3 0  9991
2 56193  97.2730  52.8834 0003774  70.3407 289.8240 15.27350839176882
HAWK-7C                 
1 56200U 23054Y   26167.25848264  .00004535  00000+0  17200-3 0  9997
2 56200  97.2707  53.6523 0003751  62.1311 298.0309 15.27352717176882
